HST                     
1 20580U 90037B   26078.01202943  .00006585  00000+0  21509-3 0  9991
2 20580  28.4725 336.3997 0001574 225.3944 134.6524 15.29626908774743
POLAR                   
1 23802U 96013A   26077.92094042  .00000190  00000+0  00000+0 0  9994
2 23802  79.7621 228.0862 6379045 212.1493  84.5948  1.29845786143683
SWAS                    
1 25560U 98071A   26078.21336165  .00002447  00000+0  16116-3 0  9997
2 25560  69.8942  99.4320 0004936 355.6306   4.4814 15.08956307483690
CXO                     
1 25867U 99040B   26079.46415603  .00001048  00000+0  00000+0 0  9994
2 25867  54.7244 119.3122 7985494 310.6329   0.3542  0.37808217 16989
XMM-NEWTON              
1 25989U 99066A   26079.59170771  .00000169  00000+0  00000+0 0  9998
2 25989  64.9328 284.1312 4707488  66.4925 359.9625  0.50125634 22568
TERRA                   
1 25994U 99068A   26078.23084544  .00000368  00000+0  84122-4 0  9991
2 25994  97.9573 131.3002 0003240 130.9793 269.2014 14.61024517396476
CLUSTER II-FM7 (SAMBA)  
1 26410U 00041A   26072.18498853  .00009157  00000+0  00000+0 0  9991
2 26410 149.0994  35.5717 8921020 251.7870   0.4837  0.44824009 19879
CLUSTER II-FM8 (TANGO)  
1 26464U 00045B   26049.06287974  .00004776  00000+0  00000+0 0  9997
2 26464 149.0711  33.5376 8890045 249.4570 359.4916  0.44405995 19769
ODIN                    
1 26702U 01007A   26078.03315142  .00036048  00000+0  45438-3 0  9994
2 26702  97.4048 114.4675 0005139 121.0853 239.0908 15.59518513375297
TIMED                   
1 26998U 01055B   26078.28192756  .00001352  00000+0  12702-3 0  9993
2 26998  74.0672  56.0113 0002961 263.4863  96.5985 14.95053147317381
CORIOLIS                
1 27640U 03001A   26078.28309451  .00000127  00000+0  80016-4 0  9996
2 27640  98.7162  86.5312 0015086 110.5241 249.7556 14.19916549201463
SORCE                   
1 27651U 03004A   26078.26642103  .00002884  00000+0  22014-3 0  9998
2 27651  39.9909  54.5082 0015982 129.5915 230.6292 15.03167920258365
MOST                    
1 27843U 03031D   26078.03248450  .00000073  00000+0  53585-4 0  9999
2 27843  98.7082  87.0056 0010440 147.5873 212.5947 14.21301875177906
SCISAT 1                
1 27858U 03036A   26078.20547392  .00000712  00000+0  95871-4 0  9990
2 27858  73.9327 350.1126 0005895  72.7868 287.3953 14.81331234218127
SWIFT                   
1 28485U 04047A   26078.26684200  .00038670  00000+0  44447-3 0  9992
2 28485  20.5529 154.2681 0004059 142.8691 217.2035 15.60126141172768
HINODE (SOLAR-B)        
1 29479U 06041A   26078.31537749  .00000592  00000+0  11050-3 0  9999
2 29479  98.0615  95.7750 0016813 209.2243 150.8023 14.68488774 41681
SHIJIAN-6 02A (SJ-6 02A)
1 29505U 06046A   26078.34951765  .00002690  00000+0  14433-3 0  9994
2 29505  97.6480 118.7620 0004921  92.4146 267.7650 15.15835966 58650
SHIJIAN-6 02B (SJ-6 02B)
1 29506U 06046B   26078.29742573  .00001920  00000+0  15470-3 0  9991
2 29506  97.7078 107.9554 0013515  13.3957 346.7623 15.01046396 57251
FGRST (GLAST)           
1 33053U 08029A   26078.24646993  .00003396  00000+0  12495-3 0  9993
2 33053  25.5815 108.7430 0008067 347.9384  12.0960 15.23405680982106
SDO                     
1 36395U 10005A   26078.04074968 -.00000042  00000+0  00000+0 0  9998
2 36395  34.4608  87.7052 0000283  74.7055 287.0308  1.00274548 59163
CRYOSAT 2               
1 36508U 10013A   26078.27867370  .00000190  00000+0  46466-4 0  9999
2 36508  92.0235 255.5087 0002150  94.1277 266.0176 14.51904126845036
X-SAT                   
1 37389U 11015C   26078.29144981  .00000201  00000+0  10309-3 0  9997
2 37389  98.3437  59.6343 0012830 245.7272 114.2569 14.25176818774873
GCOM-W1 (SHIZUKU)       
1 38337U 12025A   26078.29323019  .00000538  00000+0  12942-3 0  9992
2 38337  98.2068  20.2108 0001370  72.5343  47.7854 14.57112059735945
NUSTAR                  
1 38358U 12031A   26078.33335648  .00018787  00000+0  11327-2 0  9998
2 38358   6.0281 347.6706 0009179 219.8834 222.0960 15.07839541  1308
NEOSSAT                 
1 39089U 13009D   26078.24325540  .00000175  00000+0  75276-4 0  9993
2 39089  98.4148 260.4200 0011581 149.7004 210.4853 14.35790580683833
BRITE-AUSTRIA           
1 39091U 13009F   26078.07751697  .00000188  00000+0  78491-4 0  9999
2 39091  98.3963 259.7503 0010896 144.2245 215.9674 14.36501563684117
IRIS                    
1 39197U 13033A   26078.25854752  .00001230  00000+0  14772-3 0  9999
2 39197  97.9394 277.7918 0023244 252.3810 107.4866 14.85675070687027
HISAKI (SPRINT-A)       
1 39253U 13049A   26077.98234097  .00000131  00000+0  92160-4 0  9999
2 39253  29.7211 318.6174 0136509   5.4343 354.7682 13.55531837619179
CASSIOPE                
1 39265U 13055A   26078.30173351  .00028433 -56953-6  33881-3 0  9996
2 39265  80.9187 175.3822 0312435   4.1617 356.2093 15.19478612653999
STSAT-3                 
1 39422U 13066G   26078.27157963  .00003473  00000+0  26815-3 0  9990
2 39422  97.6087  49.7093 0010548 340.7341  19.3484 15.02165599670703
SWARM B                 
1 39451U 13067A   26078.29682809  .00003651  00000+0  13269-3 0  9994
2 39451  87.7503   9.5804 0003515  80.6442 279.5204 15.27948459669518
SWARM A                 
1 39452U 13067B   26078.28497717  .00008263  00000+0  15222-3 0  9991
2 39452  87.3276  89.5996 0003214  94.9158 265.2469 15.48963242692320
SWARM C                 
1 39453U 13067C   26078.28486255  .00008365  00000+0  15410-3 0  9999
2 39453  87.3274  88.1808 0003231  95.0179 265.1450 15.48965214692285
BRITE-CA1 (TORONTO)     
1 40020U 14033L   26078.27853733  .00001256  00000+0  19653-3 0  9998
2 40020  97.9583 208.9490 0078407 203.8959 155.8602 14.72492512628980
OCO 2                   
1 40059U 14035A   26078.26687404  .00000453  00000+0  11058-3 0  9990
2 40059  98.2006  20.9675 0001379  95.2751 264.8605 14.57105344622952
BRITE-PL2 (HEWELIUSZ)   
1 40119U 14049B   26078.24928982  .00002233  00000+0  21338-3 0  9999
2 40119  97.8989 189.6351 0015066  52.5760 307.6829 14.94228950628019
MMS 1                   
1 40482U 15011A   26078.33335648 -.00001413  00000+0  00000+0 0  9992
2 40482  71.1266 349.9928 8403222 165.6142 133.3724  0.28335421  1375
MMS 2                   
1 40483U 15011B   26078.33335648 -.00001414  00000+0  00000+0 0  9994
2 40483  71.1269 349.9950 8403962 165.6203 133.3565  0.28335416  1370
MMS 3                   
1 40484U 15011C   26078.33335648 -.00001413  00000+0  00000+0 0  9994
2 40484  71.1293 349.9996 8403230 165.6145 133.3635  0.28335378  1376
MMS 4                   
1 40485U 15011D   26078.33335648 -.00001413  00000+0  00000+0 0  9995
2 40485  71.1271 349.9949 8402750 165.6218 133.3495  0.28335377  1371
ASTROSAT                
1 40930U 15052A   26078.07443947  .00001774  00000+0  13485-3 0  9992
2 40930   5.9969  83.9002 0008080 191.5643 168.4299 14.82323933566434
DAMPE                   
1 41173U 15078A   26078.28040417  .00001317  00000+0  47141-4 0  9998
2 41173  97.4579  83.3130 0013387  41.0931 319.1315 15.30533058570791
PISAT                   
1 41784U 16059B   26078.29457840  .00000998  00000+0  17793-3 0  9992
2 41784  97.8194  82.6203 0030220 130.8604 229.5228 14.68797529506542
HXMT (HUIYAN)           
1 42758U 17034A   26078.12403458  .00004732  00000+0  23971-3 0  9991
2 42758  43.0152 324.2187 0033044 293.3613  66.3761 15.17590040483973
FLYING LAPTOP           
1 42831U 17042G   26078.31384903  .00001975  00000+0  16035-3 0  9995
2 42831  97.4288 237.5606 0019895  65.3563 294.9731 15.00578437472971
ZHANGHENG 1-01 (CSES-1) 
1 43194U 18015C   26078.32738108  .00007578  00000+0  34783-3 0  9995
2 43194  97.6768 242.2399 0017709 203.9230 156.1184 15.20573302450980
SALSAT                  
1 46495U 20068K   26078.23232798  .00006170  00000+0  22623-3 0  9994
2 46495  97.8857  75.9184 0008099 255.4064 104.6276 15.28364276301611
IXPE                    
1 49954U 21121A   26078.33335648  .00009759  00000+0  53770-3 0  9990
2 49954   0.2310 276.8919 0006848 161.5242   9.1774 15.09336572  5743
